STARLINK-11422 [DTC]    
1 61944U 24209F   25213.83211381  .00278326  00000+0  22179-2 0  9991
2 61944  53.1571  15.3109 0001341   0.2015 359.9003 15.69797692 42145
STARLINK-11421 [DTC]    
1 61945U 24209G   25213.82720504  .00179482  00000+0  14509-2 0  9994
2 61945  53.1572  15.2783 0001238 319.4542  40.6383 15.69769541 42146
STARLINK-11410 [DTC]    
1 61946U 24209H   25213.75862993  .00221087  00000+0  17777-2 0  9995
2 61946  53.1573  15.5577 0001797 317.7315  42.3565 15.69761704 42178
STARLINK-11390 [DTC]    
1 61947U 24209J   25213.75372350  .00059448  00000+0  49127-3 0  9994
2 61947  53.1575  15.5303 0001741 121.1005 239.0184 15.69746722 42197
STARLINK-11414 [DTC]    
1 61948U 24209K   25213.86144326  .00223164  00000+0  17922-2 0  9992
2 61948  53.1573  14.7684 0001285 352.8067   7.2932 15.69784681 42207
STARLINK-11424 [DTC]    
1 61949U 24209L   25213.80266592  .00185217  00000+0  14971-2 0  9994
2 61949  53.1574  15.1147 0001447 352.6362   7.4634 15.69752846 42146
STARLINK-11423 [DTC]    
1 61950U 24209M   25213.87616593  .00175488  00000+0  14217-2 0  9995
2 61950  53.1573  14.8689 0004099   7.9137 352.1945 15.69724390 42193
STARLINK-11395 [DTC]    
1 61951U 24209N   25213.87125091  .00185001  00000+0  14938-2 0  9996
2 61951  53.1577  14.8338 0001219 335.4774  24.6185 15.69778793 42177
STARLINK-32572          
1 61952U 24209P   25213.66968373  .00029405  00000+0  10008-2 0  9991
2 61952  53.1575  84.1784 0001118  84.1910 275.9218 15.30206490 41219
STARLINK-32585          
1 61953U 24209Q   25213.64235921  .00031998  00000+0  10874-2 0  9997
2 61953  53.1592  84.7157 0001322  87.6356 272.4796 15.30213033 41201
STARLINK-32574          
1 61954U 24209R   25213.65291408  .00050938  00000+0  17198-2 0  9992
2 61954  53.1584  84.7786 0001252  95.4038 264.7105 15.30207462 41226
STARLINK-32583          
1 61955U 24209S   25212.91756115  .00008044  00000+0  28345-3 0  9990
2 61955  53.1596  88.0106 0001267 110.3749 249.7388 15.30196147 41116
STARLINK-32273          
1 61956U 24209T   25213.08712434  .00022473  00000+0  76844-3 0  9995
2 61956  53.1578  86.9377 0001121  87.7649 272.3480 15.30205914 41128
STARLINK-32359          
1 61957U 24209U   25213.04186306  .00019933  00000+0  68333-3 0  9996
2 61957  53.1596  87.3679 0001247  72.5233 287.5904 15.30199631 41137
STARLINK-32566          
1 61958U 24209V   25213.67179384  .00040083  00000+0  13573-2 0  9999
2 61958  53.1575  84.1903 0001331  99.7388 260.3763 15.30220448 41230
STARLINK-32499          
1 61959U 24210A   25213.65789528  .00020270  00000+0  74386-3 0  9993
2 61959  43.0028 342.0478 0000962 293.9988  66.0763 15.27591270 41239
