[{"OBJECT_NAME":"STARLINK-11422 [DTC]","OBJECT_ID":"2024-209F","EPOCH":"2025-08-01T19:58:14.633184","MEAN_MOTION":15.69797692,"ECCENTRICITY":0.0001341,"INCLINATION":53.1571,"RA_OF_ASC_NODE":15.3109,"ARG_OF_PERICENTER":0.2015,"MEAN_ANOMALY":359.9003,"EPHEMERIS_TYPE":0,"CLASSIFICATION_TYPE":"U","NORAD_CAT_ID":61944,"ELEMENT_SET_NO":999,"REV_AT_EPOCH":4214,"BSTAR":0.0022179,"MEAN_MOTION_DOT":0.00278326,"MEAN_MOTION_DDOT":0},{"OBJECT_NAME":"STARLINK-11421 [DTC]","OBJECT_ID":"2024-209G","EPOCH":"2025-08-01T19:51:10.515456","MEAN_MOTION":15.69769541,"ECCENTRICITY":0.0001238,"INCLINATION":53.1572,"RA_OF_ASC_NODE":15.2783,"ARG_OF_PERICENTER":319.4542,"MEAN_ANOMALY":40.6383,"EPHEMERIS_TYPE":0,"CLASSIFICATION_TYPE":"U","NORAD_CAT_ID":61945,"ELEMENT_SET_NO":999,"REV_AT_EPOCH":4214,"BSTAR":0.0014509,"MEAN_MOTION_DOT":0.00179482,"MEAN_MOTION_DDOT":0},{"OBJECT_NAME":"STARLINK-11410 [DTC]","OBJECT_ID":"2024-209H","EPOCH":"2025-08-01T18:12:25.625952","MEAN_MOTION":15.69761704,"ECCENTRICITY":0.0001797,"INCLINATION":53.1573,"RA_OF_ASC_NODE":15.5577,"ARG_OF_PERICENTER":317.7315,"MEAN_ANOMALY":42.3565,"EPHEMERIS_TYPE":0,"CLASSIFICATION_TYPE":"U","NORAD_CAT_ID":61946,"ELEMENT_SET_NO":999,"REV_AT_EPOCH":4217,"BSTAR":0.0017777,"MEAN_MOTION_DOT":0.00221087,"MEAN_MOTION_DDOT":0},{"OBJECT_NAME":"STARLINK-11390 [DTC]","OBJECT_ID":"2024-209J","EPOCH":"2025-08-01T18:05:21.710400","MEAN_MOTION":15.69746722,"ECCENTRICITY":0.0001741,"INCLINATION":53.1575,"RA_OF_ASC_NODE":15.5303,"ARG_OF_PERICENTER":121.1005,"MEAN_ANOMALY":239.0184,"EPHEMERIS_TYPE":0,"CLASSIFICATION_TYPE":"U","NORAD_CAT_ID":61947,"ELEMENT_SET_NO":999,"REV_AT_EPOCH":4219,"BSTAR":0.00049127,"MEAN_MOTION_DOT":0.00059448,"MEAN_MOTION_DDOT":0},{"OBJECT_NAME":"STARLINK-11414 [DTC]","OBJECT_ID":"2024-209K","EPOCH":"2025-08-01T20:40:28.697664","MEAN_MOTION":15.69784681,"ECCENTRICITY":0.0001285,"INCLINATION":53.1573,"RA_OF_ASC_NODE":14.7684,"ARG_OF_PERICENTER":352.8067,"MEAN_ANOMALY":7.2932,"EPHEMERIS_TYPE":0,"CLASSIFICATION_TYPE":"U","NORAD_CAT_ID":61948,"ELEMENT_SET_NO":999,"REV_AT_EPOCH":4220,"BSTAR":0.0017922,"MEAN_MOTION_DOT":0.00223164,"MEAN_MOTION_DDOT":0},{"OBJECT_NAME":"STARLINK-11424 [DTC]","OBJECT_ID":"2024-209L","EPOCH":"2025-08-01T19:15:50.335488","MEAN_MOTION":15.69752846,"ECCENTRICITY":0.0001447,"INCLINATION":53.1574,"RA_OF_ASC_NODE":15.1147,"ARG_OF_PERICENTER":352.6362,"MEAN_ANOMALY":7.4634,"EPHEMERIS_TYPE":0,"CLASSIFICATION_TYPE":"U","NORAD_CAT_ID":61949,"ELEMENT_SET_NO":999,"REV_AT_EPOCH":4214,"BSTAR":0.0014971,"MEAN_MOTION_DOT":0.00185217,"MEAN_MOTION_DDOT":0},{"OBJECT_NAME":"STARLINK-11423 [DTC]","OBJECT_ID":"2024-209M","EPOCH":"2025-08-01T21:01:40.736352","MEAN_MOTION":15.6972439,"ECCENTRICITY":0.0004099,"INCLINATION":53.1573,"RA_OF_ASC_NODE":14.8689,"ARG_OF_PERICENTER":7.9137,"MEAN_ANOMALY":352.1945,"EPHEMERIS_TYPE":0,"CLASSIFICATION_TYPE":"U","NORAD_CAT_ID":61950,"ELEMENT_SET_NO":999,"REV_AT_EPOCH":4219,"BSTAR":0.0014217,"MEAN_MOTION_DOT":0.00175488,"MEAN_MOTION_DDOT":0},{"OBJECT_NAME":"STARLINK-11395 [DTC]","OBJECT_ID":"2024-209N","EPOCH":"2025-08-01T20:54:36.078624","MEAN_MOTION":15.69778793,"ECCENTRICITY":0.0001219,"INCLINATION":53.1577,"RA_OF_ASC_NODE":14.8338,"ARG_OF_PERICENTER":335.4774,"MEAN_ANOMALY":24.6185,"EPHEMERIS_TYPE":0,"CLASSIFICATION_TYPE":"U","NORAD_CAT_ID":61951,"ELEMENT_SET_NO":999,"REV_AT_EPOCH":4217,"BSTAR":0.0014938,"MEAN_MOTION_DOT":0.00185001,"MEAN_MOTION_DDOT":0},{"OBJECT_NAME":"STARLINK-32572","OBJECT_ID":"2024-209P","EPOCH":"2025-08-01T16:04:20.674272","MEAN_MOTION":15.3020649,"ECCENTRICITY":0.0001118,"INCLINATION":53.1575,"RA_OF_ASC_NODE":84.1784,"ARG_OF_PERICENTER":84.191,"MEAN_ANOMALY":275.9218,"EPHEMERIS_TYPE":0,"CLASSIFICATION_TYPE":"U","NORAD_CAT_ID":61952,"ELEMENT_SET_NO":999,"REV_AT_EPOCH":4121,"BSTAR":0.0010008,"MEAN_MOTION_DOT":0.00029405,"MEAN_MOTION_DDOT":0},{"OBJECT_NAME":"STARLINK-32585","OBJECT_ID":"2024-209Q","EPOCH":"2025-08-01T15:24:59.835744","MEAN_MOTION":15.30213033,"ECCENTRICITY":0.0001322,"INCLINATION":53.1592,"RA_OF_ASC_NODE":84.7157,"ARG_OF_PERICENTER":87.6356,"MEAN_ANOMALY":272.4796,"EPHEMERIS_TYPE":0,"CLASSIFICATION_TYPE":"U","NORAD_CAT_ID":61953,"ELEMENT_SET_NO":999,"REV_AT_EPOCH":4120,"BSTAR":0.0010874,"MEAN_MOTION_DOT":0.00031998,"MEAN_MOTION_DDOT":0},{"OBJECT_NAME":"STARLINK-32574","OBJECT_ID":"2024-209R","EPOCH":"2025-08-01T15:40:11.776512","MEAN_MOTION":15.30207462,"ECCENTRICITY":0.0001252,"INCLINATION":53.1584,"RA_OF_ASC_NODE":84.7786,"ARG_OF_PERICENTER":95.4038,"MEAN_ANOMALY":264.7105,"EPHEMERIS_TYPE":0,"CLASSIFICATION_TYPE":"U","NORAD_CAT_ID":61954,"ELEMENT_SET_NO":999,"REV_AT_EPOCH":4122,"BSTAR":0.0017198,"MEAN_MOTION_DOT":0.00050938,"MEAN_MOTION_DDOT":0},{"OBJECT_NAME":"STARLINK-32583","OBJECT_ID":"2024-209S","EPOCH":"2025-07-31T22:01:17.283360","MEAN_MOTION":15.30196147,"ECCENTRICITY":0.0001267,"INCLINATION":53.1596,"RA_OF_ASC_NODE":88.0106,"ARG_OF_PERICENTER":110.3749,"MEAN_ANOMALY":249.7388,"EPHEMERIS_TYPE":0,"CLASSIFICATION_TYPE":"U","NORAD_CAT_ID":61955,"ELEMENT_SET_NO":999,"REV_AT_EPOCH":4111,"BSTAR":0.00028345,"MEAN_MOTION_DOT":8.044e-5,"MEAN_MOTION_DDOT":0},{"OBJECT_NAME":"STARLINK-32273","OBJECT_ID":"2024-209T","EPOCH":"2025-08-01T02:05:27.542976","MEAN_MOTION":15.30205914,"ECCENTRICITY":0.0001121,"INCLINATION":53.1578,"RA_OF_ASC_NODE":86.9377,"ARG_OF_PERICENTER":87.7649,"MEAN_ANOMALY":272.348,"EPHEMERIS_TYPE":0,"CLASSIFICATION_TYPE":"U","NORAD_CAT_ID":61956,"ELEMENT_SET_NO":999,"REV_AT_EPOCH":4112,"BSTAR":0.00076844,"MEAN_MOTION_DOT":0.00022473,"MEAN_MOTION_DDOT":0},{"OBJECT_NAME":"STARLINK-32359","OBJECT_ID":"2024-209U","EPOCH":"2025-08-01T01:00:16.968384","MEAN_MOTION":15.30199631,"ECCENTRICITY":0.0001247,"INCLINATION":53.1596,"RA_OF_ASC_NODE":87.3679,"ARG_OF_PERICENTER":72.5233,"MEAN_ANOMALY":287.5904,"EPHEMERIS_TYPE":0,"CLASSIFICATION_TYPE":"U","NORAD_CAT_ID":61957,"ELEMENT_SET_NO":999,"REV_AT_EPOCH":4113,"BSTAR":0.00068333,"MEAN_MOTION_DOT":0.00019933,"MEAN_MOTION_DDOT":0},{"OBJECT_NAME":"STARLINK-32566","OBJECT_ID":"2024-209V","EPOCH":"2025-08-01T16:07:22.987776","MEAN_MOTION":15.30220448,"ECCENTRICITY":0.0001331,"INCLINATION":53.1575,"RA_OF_ASC_NODE":84.1903,"ARG_OF_PERICENTER":99.7388,"MEAN_ANOMALY":260.3763,"EPHEMERIS_TYPE":0,"CLASSIFICATION_TYPE":"U","NORAD_CAT_ID":61958,"ELEMENT_SET_NO":999,"REV_AT_EPOCH":4123,"BSTAR":0.0013573,"MEAN_MOTION_DOT":0.00040083,"MEAN_MOTION_DDOT":0},{"OBJECT_NAME":"STARLINK-32499","OBJECT_ID":"2024-210A","EPOCH":"2025-08-01T15:47:22.152192","MEAN_MOTION":15.2759127,"ECCENTRICITY":9.62e-5,"INCLINATION":43.0028,"RA_OF_ASC_NODE":342.0478,"ARG_OF_PERICENTER":293.9988,"MEAN_ANOMALY":66.0763,"EPHEMERIS_TYPE":0,"CLASSIFICATION_TYPE":"U","NORAD_CAT_ID":61959,"ELEMENT_SET_NO":999,"REV_AT_EPOCH":4123,"BSTAR":0.00074386,"MEAN_MOTION_DOT":0.0002027,"MEAN_MOTION_DDOT":0}]
